     2.11           G: GLONASS NAV DATA                     RINEX VERSION / TYPE
NetR9 5.45          Receiver Operator   01-JAN-21 00:00:02  PGM / RUN BY / DATE
    18                                                      LEAP SECONDS
                                                            END OF HEADER
21 21  1  1  5 45  0.0 -.177215784788D-03 -.272848410532D-11  .198000000000D+05
     .866609179687D+04  .301094436646D+01  .931322574615D-09  .000000000000D+00
    -.835115185547D+04  .663479804993D+00 -.465661287308D-08  .400000000000D+01
     .224932954102D+05 -.916525840759D+00  .000000000000D+00  .000000000000D+00
 6 21  1  1  5 45  0.0  .190191902220D-03  .000000000000D+00  .198000000000D+05
     .189141494141D+05 -.106264114380D+01  .000000000000D+00  .000000000000D+00
    -.134639497070D+05  .995213508606D+00 -.558793544769D-08 -.400000000000D+01
     .105821386719D+05  .315820407867D+01  .186264514923D-08  .000000000000D+00
 4 21  1  1  5 45  0.0  .681160017848D-04  .181898940355D-11  .198000000000D+05
    -.232583886719D+04 -.177747440338D+01  .000000000000D+00  .000000000000D+00
     .160119375000D+05  .203281402588D+01  .000000000000D+00  .600000000000D+01
     .197368574219D+05 -.186124134064D+01 -.279396772385D-08  .000000000000D+00
19 21  1  1  5 45  0.0 -.126052647829D-03 -.909494701773D-12  .198000000000D+05
     .214894091797D+05 -.118016338348D+01 -.279396772385D-08  .000000000000D+00
     .100609428711D+05 -.555480957031D+00  .000000000000D+00  .300000000000D+01
    -.934730224609D+04 -.330870056152D+01  .000000000000D+00  .000000000000D+00
14 21  1  1  5 45  0.0  .593503937125D-04  .000000000000D+00  .198000000000D+05
    -.225374658203D+04 -.561309814453D+00 -.931322574615D-09  .000000000000D+00
     .194418491211D+05 -.216984081268D+01  .931322574615D-09 -.700000000000D+01
     .163732661133D+05  .249989128113D+01 -.279396772385D-08  .000000000000D+00
13 21  1  1  5 45  0.0 -.487146899104D-04  .000000000000D+00  .198300000000D+05
    -.106587246094D+05 -.964140892029D+00  .931322574615D-09  .000000000000D+00
     .265700292969D+04 -.300343894958D+01 -.931322574615D-09 -.200000000000D+01
     .230040810547D+05 -.992612838745D-01 -.186264514923D-08  .000000000000D+00
22 21  1  1  5 45  0.0 -.900728628039D-04 -.181898940355D-11  .204900000000D+05
    -.940699609375D+04  .271186351776D+01  .279396772385D-08  .000000000000D+00
    -.117891396484D+05  .786281585693D+00 -.279396772385D-08 -.300000000000D+01
     .205356899414D+05  .170140552521D+01  .000000000000D+00  .000000000000D+00
15 21  1  1  5 45  0.0  .106099992990D-03  .000000000000D+00  .206100000000D+05
     .725035839844D+04  .135521888733D+00 -.279396772385D-08  .000000000000D+00
     .244493730469D+05 -.983953475952D-01  .186264514923D-08  .000000000000D+00
     .417158203125D+03  .356820869446D+01 -.186264514923D-08  .000000000000D+00
 5 21  1  1  6 15  0.0  .639455392957D-04  .909494701773D-12  .216000000000D+05
     .788189306641D+04 -.183806514740D+01  .000000000000D+00  .000000000000D+00
     .755098828125D+04  .256678676605D+01 -.186264514923D-08  .100000000000D+01
     .230579243164D+05 -.214611053467D+00 -.186264514923D-08  .000000000000D+00
20 21  1  1  6 15  0.0 -.430140644312D-03  .000000000000D+00  .216000000000D+05
     .251227939453D+05  .619997024536D+00 -.186264514923D-08  .000000000000D+00
     .139078369141D+04 -.172404289246D+00 -.186264514923D-08  .200000000000D+01
     .433487011719D+04 -.354611492157D+01  .000000000000D+00  .000000000000D+00
21 21  1  1  6 15  0.0 -.177220441401D-03 -.272848410532D-11  .216000000000D+05
     .138864189453D+05  .273828983307D+01  .000000000000D+00  .000000000000D+00
    -.760976562500D+04  .168118476868D+00 -.465661287308D-08  .400000000000D+01
     .199955512695D+05 -.184082221985D+01  .000000000000D+00  .000000000000D+00
 6 21  1  1  6 15  0.0  .190193764865D-03  .000000000000D+00  .216000000000D+05
     .167427202148D+05 -.130580329895D+01  .000000000000D+00  .000000000000D+00
    -.110110151367D+05  .172721099854D+01 -.465661287308D-08 -.400000000000D+01
     .157845991211D+05  .258473396301D+01  .931322574615D-09  .000000000000D+00
14 21  1  1  6 15  0.0  .593513250351D-04  .000000000000D+00  .216000000000D+05
    -.373061816406D+04 -.108751869202D+01  .000000000000D+00  .000000000000D+00
     .151626635742D+05 -.253767871857D+01  .000000000000D+00 -.700000000000D+01
     .201827792969D+05  .170547008514D+01 -.279396772385D-08  .000000000000D+00
 4 21  1  1  6 15  0.0  .681187957525D-04  .181898940355D-11  .216000000000D+05
    -.495652539062D+04 -.114013957977D+01  .000000000000D+00  .000000000000D+00
     .195211206055D+05  .181853771210D+01  .931322574615D-09  .600000000000D+01
     .156679545898D+05 -.263052082062D+01 -.372529029846D-08  .000000000000D+00
13 21  1  1  6 15  0.0 -.487156212330D-04  .000000000000D+00  .216000000000D+05
    -.127423715820D+05 -.132599639893D+01  .186264514923D-08  .000000000000D+00
    -.251695996094D+04 -.270038414001D+01 -.186264514923D-08 -.200000000000D+01
     .219369941406D+05 -.107865619659D+01 -.931322574615D-09  .000000000000D+00
22 21  1  1  6 15  0.0 -.900765880942D-04 -.181898940355D-11  .216000000000D+05
    -.413352929687D+04  .310055351257D+01  .186264514923D-08  .000000000000D+00
    -.107050844727D+05  .394927024841D+00 -.372529029846D-08 -.300000000000D+01
     .227624765625D+05  .756934165955D+00  .000000000000D+00  .000000000000D+00
15 21  1  1  6 15  0.0  .106099061668D-03  .000000000000D+00  .216000000000D+05
     .718463232422D+04 -.243355751038D+00 -.186264514923D-08  .000000000000D+00
     .235306811523D+05 -.900477409363D+00  .186264514923D-08  .000000000000D+00
     .674079589844D+04  .341243362427D+01 -.279396772385D-08  .000000000000D+00
 7 21  1  1  6 15  0.0 -.420138239861D-04  .000000000000D+00  .219600000000D+05
     .148606875000D+05 -.128249168396D+00  .000000000000D+00  .000000000000D+00
    -.207634409180D+05 -.105388641357D+00 -.465661287308D-08  .500000000000D+01
    -.491176757812D+02  .356634140015D+01  .279396772385D-08  .000000000000D+00
21 21  1  1  6 45  0.0 -.177226029336D-03 -.272848410532D-11  .234000000000D+05
     .183526220703D+05  .218159198761D+01 -.931322574615D-09  .000000000000D+00
    -.768583349609D+04 -.227742195129D+00 -.372529029846D-08  .400000000000D+01
     .159516494141D+05 -.262329387665D+01  .000000000000D+00  .000000000000D+00
 6 21  1  1  6 45  0.0  .190194696188D-03  .000000000000D+00  .234000000000D+05
     .143714482422D+05 -.128683185577D+01 -.931322574615D-09  .000000000000D+00
    -.729104101563D+04  .238438415527D+01 -.372529029846D-08 -.400000000000D+01
     .197667460938D+05  .181106472015D+01  .000000000000D+00  .000000000000D+00
 5 21  1  1  6 45  0.0  .639464706182D-04  .909494701773D-12  .234000000000D+05
     .498522363281D+04 -.136029338837D+01  .000000000000D+00  .000000000000D+00
     .122942856445D+05  .265588760376D+01  .000000000000D+00  .100000000000D+01
     .217855708008D+05 -.119001865387D+01 -.279396772385D-08  .000000000000D+00
20 21  1  1  6 45  0.0 -.430141575634D-03  .000000000000D+00  .234000000000D+05
     .254208359375D+05 -.294248580933D+00 -.279396772385D-08  .000000000000D+00
     .967107910156D+03 -.255846977234D+00  .000000000000D+00  .200000000000D+01
    -.213303417969D+04 -.359389591217D+01  .000000000000D+00  .000000000000D+00
22 21  1  1  6 45  0.0 -.900803133845D-04 -.181898940355D-11  .234000000000D+05
     .157195800781D+04  .318574333191D+01  .000000000000D+00  .000000000000D+00
    -.104200712891D+05 -.837125778198D-01 -.465661287308D-08 -.300000000000D+01
     .232263090820D+05 -.244644165039D+00  .000000000000D+00  .000000000000D+00
14 21  1  1  6 45  0.0  .593522563577D-04  .000000000000D+00  .234000000000D+05
    -.616455371094D+04 -.160654258728D+01  .000000000000D+00  .000000000000D+00
     .104821142578D+05 -.261388206482D+01 -.931322574615D-09 -.700000000000D+01
     .224337846680D+05  .779433250427D+00 -.279396772385D-08  .000000000000D+00
15 21  1  1  6 45  0.0  .106099061668D-03  .000000000000D+00  .234000000000D+05
     .626959814453D+04 -.795564651489D+00 -.931322574615D-09  .000000000000D+00
     .213151362305D+05 -.152445507050D+01  .186264514923D-08  .000000000000D+00
     .125433144531D+05  .299300193787D+01 -.279396772385D-08  .000000000000D+00
 7 21  1  1  6 45  0.0 -.420138239861D-04  .000000000000D+00  .234000000000D+05
     .142210424805D+05 -.544363021851D+00  .000000000000D+00  .000000000000D+00
    -.202607133789D+05  .679306983948D+00 -.465661287308D-08  .500000000000D+01
     .628952197266D+04  .343102264404D+01  .186264514923D-08  .000000000000D+00
 4 21  1  1  6 45  0.0  .681225210428D-04  .181898940355D-11  .234000000000D+05
    -.644480615234D+04 -.526628494263D+00  .000000000000D+00  .000000000000D+00
     .223922998047D+05  .132850742340D+01  .279396772385D-08  .600000000000D+01
     .103889458008D+05 -.319704818726D+01 -.279396772385D-08  .000000000000D+00
16 21  1  1  6 45  0.0 -.975746661425D-05 -.909494701773D-12  .240900000000D+05
     .158844321289D+05  .531970024109D+00 -.186264514923D-08  .000000000000D+00
     .190360327148D+05  .586308479309D+00  .279396772385D-08 -.100000000000D+01
    -.572165380859D+04  .345380592346D+01 -.186264514923D-08  .000000000000D+00
 6 21  1  1  7 15  0.0  .190195627511D-03  .000000000000D+00  .252000000000D+05
     .122474223633D+05 -.104033374786D+01 -.931322574615D-09  .000000000000D+00
    -.253543994141D+04  .286206245422D+01 -.279396772385D-08 -.400000000000D+01
     .222198779297D+05  .896842002869D+00 -.931322574615D-09  .000000000000D+00
21 21  1  1  7 15  0.0 -.177231617272D-03 -.272848410532D-11  .252000000000D+05
     .216120585937D+05  .141249942780D+01 -.186264514923D-08  .000000000000D+00
    -.831550537109D+04 -.434560775757D+00 -.279396772385D-08  .400000000000D+01
     .106735522461D+05 -.320319080353D+01  .000000000000D+00  .000000000000D+00
